SL-3 R/B                
1 13403U 82079B   25361.45696816  .00007503  00000+0  30777-3 0  9990
2 13403  81.1469 278.3122 0026803  51.9788 308.3858 15.23763274366699
SL-14 R/B               
1 13553U 82092B   25361.03470579  .00000562  00000+0  60412-4 0  9999
2 13553  82.5671 209.3427 0020322 178.0735 333.5684 14.86569342318131
SL-3 R/B                
1 13819U 83010B   25361.29215354  .00015981  00000+0  34970-3 0  9991
2 13819  81.1041  90.8511 0016480 299.3080  60.6515 15.43860975346760
SL-3 R/B                
1 14208U 83075B   25361.50766030  .00011781  00000+0  33051-3 0  9994
2 14208  97.6115 358.4900 0024194 124.6938 235.6589 15.36437959319067
COSMOS 1536             
1 14699U 84013A   25361.46172682  .00006591  00000+0  28076-3 0  9994
2 14699  82.5450 179.5617 0014710 171.7240 188.4242 15.22688080261622
SL-14 R/B               
1 14820U 84027B   25361.30338914  .00000637  00000+0  70209-4 0  9991
2 14820  82.5423 312.8984 0017094 208.8247 151.2027 14.85890146236889
SL-8 R/B                
1 15483U 85006B   25361.51151434  .00000318  00000+0  11439-3 0  9993
2 15483  74.0459  33.9567 0019346 323.2429 142.9135 14.37730233143650
SL-12 R/B(2)            
1 15772U 85042D   25361.11457147  .00000083  00000+0  58756-4 0  9993
2 15772  71.1068 241.0523 0037224 240.3907 271.9829 14.21956137104076
SL-14 R/B               
1 15945U 85069B   25361.51217897  .00000608  00000+0  65963-4 0  9995
2 15945  82.5273  92.8159 0020253  73.1079 287.2356 14.86341274162110
SL-16 R/B               
1 16182U 85097B   25361.26439964 -.00000196  00000+0 -74148-4 0  9992
2 16182  71.0034 293.0248 0007615 348.4462 119.3933 14.16586886 76974
SL-14 R/B               
1 16496U 86006B   25361.37269463  .00000718  00000+0  73558-4 0  9990
2 16496  82.5274 327.7821 0077451 151.3454 209.2054 14.86689946138468
COSMOS 1743             
1 16719U 86034A   25361.47842191  .00036403  00000+0  58104-3 0  9994
2 16719  82.5346 149.2732 0005056 193.4487 166.6632 15.53020145169028
