CCSDS_OMM_VERS = 2.0
CREATION_DATE  = 
ORIGINATOR     = 

OBJECT_NAME    = SL-3 R/B
OBJECT_ID      = 1982-079B
CENTER_NAME    = EARTH
REF_FRAME      = TEME
TIME_SYSTEM    = UTC
MEAN_ELEMENT_THEORY = SGP/SGP4

EPOCH          = 2025-12-27T10:58:02.049024
MEAN_MOTION    = 15.23763274
ECCENTRICITY   = .0026803
INCLINATION    = 81.1469
RA_OF_ASC_NODE = 278.3122
ARG_OF_PERICENTER = 51.9788
MEAN_ANOMALY   = 308.3858

EPHEMERIS_TYPE = 0
CLASSIFICATION_TYPE = U
NORAD_CAT_ID   = 13403
ELEMENT_SET_NO = 999
REV_AT_EPOCH   = 36669
BSTAR          = .30777E-3
MEAN_MOTION_DOT = .7503E-4
MEAN_MOTION_DDOT = 0

CCSDS_OMM_VERS = 2.0
CREATION_DATE  = 
ORIGINATOR     = 

OBJECT_NAME    = SL-14 R/B
OBJECT_ID      = 1982-092B
CENTER_NAME    = EARTH
REF_FRAME      = TEME
TIME_SYSTEM    = UTC
MEAN_ELEMENT_THEORY = SGP/SGP4

EPOCH          = 2025-12-27T00:49:58.580256
MEAN_MOTION    = 14.86569342
ECCENTRICITY   = .00203224
INCLINATION    = 82.5671
RA_OF_ASC_NODE = 209.3427
ARG_OF_PERICENTER = 178.0735
MEAN_ANOMALY   = 333.5684

EPHEMERIS_TYPE = 0
CLASSIFICATION_TYPE = U
NORAD_CAT_ID   = 13553
ELEMENT_SET_NO = 999
REV_AT_EPOCH   = 31813
BSTAR          = .60411948E-4
MEAN_MOTION_DOT = .562E-5
MEAN_MOTION_DDOT = 0

CCSDS_OMM_VERS = 2.0
CREATION_DATE  = 
ORIGINATOR     = 

OBJECT_NAME    = SL-3 R/B
OBJECT_ID      = 1983-010B
CENTER_NAME    = EARTH
REF_FRAME      = TEME
TIME_SYSTEM    = UTC
MEAN_ELEMENT_THEORY = SGP/SGP4

EPOCH          = 2025-12-27T07:00:42.065856
MEAN_MOTION    = 15.43860975
ECCENTRICITY   = .001648
INCLINATION    = 81.1041
RA_OF_ASC_NODE = 90.8511
ARG_OF_PERICENTER = 299.3080
MEAN_ANOMALY   = 60.6515

EPHEMERIS_TYPE = 0
CLASSIFICATION_TYPE = U
NORAD_CAT_ID   = 13819
ELEMENT_SET_NO = 999
REV_AT_EPOCH   = 34676
BSTAR          = .3497E-3
MEAN_MOTION_DOT = .15981E-3
MEAN_MOTION_DDOT = 0

CCSDS_OMM_VERS = 2.0
CREATION_DATE  = 
ORIGINATOR     = 

OBJECT_NAME    = SL-3 R/B
OBJECT_ID      = 1983-075B
CENTER_NAME    = EARTH
REF_FRAME      = TEME
TIME_SYSTEM    = UTC
MEAN_ELEMENT_THEORY = SGP/SGP4

EPOCH          = 2025-12-27T12:11:01.849920
MEAN_MOTION    = 15.36437959
ECCENTRICITY   = .0024194
INCLINATION    = 97.6115
RA_OF_ASC_NODE = 358.4900
ARG_OF_PERICENTER = 124.6938
MEAN_ANOMALY   = 235.6589

EPHEMERIS_TYPE = 0
CLASSIFICATION_TYPE = U
NORAD_CAT_ID   = 14208
ELEMENT_SET_NO = 999
REV_AT_EPOCH   = 31906
BSTAR          = .33051E-3
MEAN_MOTION_DOT = .11781E-3
MEAN_MOTION_DDOT = 0

CCSDS_OMM_VERS = 2.0
CREATION_DATE  = 
ORIGINATOR     = 

OBJECT_NAME    = COSMOS 1536
OBJECT_ID      = 1984-013A
CENTER_NAME    = EARTH
REF_FRAME      = TEME
TIME_SYSTEM    = UTC
MEAN_ELEMENT_THEORY = SGP/SGP4

EPOCH          = 2025-12-27T11:04:53.197248
MEAN_MOTION    = 15.22688080
ECCENTRICITY   = .001471
INCLINATION    = 82.5450
RA_OF_ASC_NODE = 179.5617
ARG_OF_PERICENTER = 171.7240
MEAN_ANOMALY   = 188.4242

EPHEMERIS_TYPE = 0
CLASSIFICATION_TYPE = U
NORAD_CAT_ID   = 14699
ELEMENT_SET_NO = 999
REV_AT_EPOCH   = 26162
BSTAR          = .28076E-3
MEAN_MOTION_DOT = .6591E-4
MEAN_MOTION_DDOT = 0

CCSDS_OMM_VERS = 2.0
CREATION_DATE  = 
ORIGINATOR     = 

OBJECT_NAME    = SL-14 R/B
OBJECT_ID      = 1984-027B
CENTER_NAME    = EARTH
REF_FRAME      = TEME
TIME_SYSTEM    = UTC
MEAN_ELEMENT_THEORY = SGP/SGP4

EPOCH          = 2025-12-27T07:16:52.821696
MEAN_MOTION    = 14.85890146
ECCENTRICITY   = .0017094
INCLINATION    = 82.5423
RA_OF_ASC_NODE = 312.8984
ARG_OF_PERICENTER = 208.8247
MEAN_ANOMALY   = 151.2027

EPHEMERIS_TYPE = 0
CLASSIFICATION_TYPE = U
NORAD_CAT_ID   = 14820
ELEMENT_SET_NO = 999
REV_AT_EPOCH   = 23688
BSTAR          = .70209E-4
MEAN_MOTION_DOT = .637E-5
MEAN_MOTION_DDOT = 0

CCSDS_OMM_VERS = 2.0
CREATION_DATE  = 
ORIGINATOR     = 

OBJECT_NAME    = SL-8 R/B
OBJECT_ID      = 1985-006B
CENTER_NAME    = EARTH
REF_FRAME      = TEME
TIME_SYSTEM    = UTC
MEAN_ELEMENT_THEORY = SGP/SGP4

EPOCH          = 2025-12-27T12:16:34.838976
MEAN_MOTION    = 14.37730233
ECCENTRICITY   = .0019346
INCLINATION    = 74.0459
RA_OF_ASC_NODE = 33.9567
ARG_OF_PERICENTER = 323.2429
MEAN_ANOMALY   = 142.9135

EPHEMERIS_TYPE = 0
CLASSIFICATION_TYPE = U
NORAD_CAT_ID   = 15483
ELEMENT_SET_NO = 999
REV_AT_EPOCH   = 14365
BSTAR          = .11439E-3
MEAN_MOTION_DOT = .318E-5
MEAN_MOTION_DDOT = 0

CCSDS_OMM_VERS = 2.0
CREATION_DATE  = 
ORIGINATOR     = 

OBJECT_NAME    = SL-12 R/B(2)
OBJECT_ID      = 1985-042D
CENTER_NAME    = EARTH
REF_FRAME      = TEME
TIME_SYSTEM    = UTC
MEAN_ELEMENT_THEORY = SGP/SGP4

EPOCH          = 2025-12-27T02:44:58.975008
MEAN_MOTION    = 14.21956137
ECCENTRICITY   = .00372244
INCLINATION    = 71.1068
RA_OF_ASC_NODE = 241.0523
ARG_OF_PERICENTER = 240.3907
MEAN_ANOMALY   = 271.9829

EPHEMERIS_TYPE = 0
CLASSIFICATION_TYPE = U
NORAD_CAT_ID   = 15772
ELEMENT_SET_NO = 999
REV_AT_EPOCH   = 10407
BSTAR          = .58756026E-4
MEAN_MOTION_DOT = .83E-6
MEAN_MOTION_DDOT = 0

CCSDS_OMM_VERS = 2.0
CREATION_DATE  = 
ORIGINATOR     = 

OBJECT_NAME    = SL-14 R/B
OBJECT_ID      = 1985-069B
CENTER_NAME    = EARTH
REF_FRAME      = TEME
TIME_SYSTEM    = UTC
MEAN_ELEMENT_THEORY = SGP/SGP4

EPOCH          = 2025-12-27T12:17:32.263008
MEAN_MOTION    = 14.86341274
ECCENTRICITY   = .0020253
INCLINATION    = 82.5273
RA_OF_ASC_NODE = 92.8159
ARG_OF_PERICENTER = 73.1079
MEAN_ANOMALY   = 287.2356

EPHEMERIS_TYPE = 0
CLASSIFICATION_TYPE = U
NORAD_CAT_ID   = 15945
ELEMENT_SET_NO = 999
REV_AT_EPOCH   = 16211
BSTAR          = .65963E-4
MEAN_MOTION_DOT = .608E-5
MEAN_MOTION_DDOT = 0

CCSDS_OMM_VERS = 2.0
CREATION_DATE  = 
ORIGINATOR     = 

OBJECT_NAME    = SL-16 R/B
OBJECT_ID      = 1985-097B
CENTER_NAME    = EARTH
REF_FRAME      = TEME
TIME_SYSTEM    = UTC
MEAN_ELEMENT_THEORY = SGP/SGP4

EPOCH          = 2025-12-27T06:20:44.128896
MEAN_MOTION    = 14.16586886
ECCENTRICITY   = .0007615
INCLINATION    = 71.0034
RA_OF_ASC_NODE = 293.0248
ARG_OF_PERICENTER = 348.4462
MEAN_ANOMALY   = 119.3933

EPHEMERIS_TYPE = 0
CLASSIFICATION_TYPE = U
NORAD_CAT_ID   = 16182
ELEMENT_SET_NO = 999
REV_AT_EPOCH   = 7697
BSTAR          = -.74148E-4
MEAN_MOTION_DOT = -.196E-5
MEAN_MOTION_DDOT = 0

CCSDS_OMM_VERS = 2.0
CREATION_DATE  = 
ORIGINATOR     = 

OBJECT_NAME    = SL-14 R/B
OBJECT_ID      = 1986-006B
CENTER_NAME    = EARTH
REF_FRAME      = TEME
TIME_SYSTEM    = UTC
MEAN_ELEMENT_THEORY = SGP/SGP4

EPOCH          = 2025-12-27T08:56:40.816032
MEAN_MOTION    = 14.86689946
ECCENTRICITY   = .0077451
INCLINATION    = 82.5274
RA_OF_ASC_NODE = 327.7821
ARG_OF_PERICENTER = 151.3454
MEAN_ANOMALY   = 209.2054

EPHEMERIS_TYPE = 0
CLASSIFICATION_TYPE = U
NORAD_CAT_ID   = 16496
ELEMENT_SET_NO = 999
REV_AT_EPOCH   = 13846
BSTAR          = .73558E-4
MEAN_MOTION_DOT = .718E-5
MEAN_MOTION_DDOT = 0

CCSDS_OMM_VERS = 2.0
CREATION_DATE  = 
ORIGINATOR     = 

OBJECT_NAME    = COSMOS 1743
OBJECT_ID      = 1986-034A
CENTER_NAME    = EARTH
REF_FRAME      = TEME
TIME_SYSTEM    = UTC
MEAN_ELEMENT_THEORY = SGP/SGP4

EPOCH          = 2025-12-27T11:28:55.653024
MEAN_MOTION    = 15.53020145
ECCENTRICITY   = .0005056
INCLINATION    = 82.5346
RA_OF_ASC_NODE = 149.2732
ARG_OF_PERICENTER = 193.4487
MEAN_ANOMALY   = 166.6632

EPHEMERIS_TYPE = 0
CLASSIFICATION_TYPE = U
NORAD_CAT_ID   = 16719
ELEMENT_SET_NO = 999
REV_AT_EPOCH   = 16902
BSTAR          = .58104E-3
MEAN_MOTION_DOT = .36403E-3
MEAN_MOTION_DDOT = 0

